{
    "links": {
        "self": "http://www.neowsapp.com/rest/v1/neo/3441854?api_key=iIulBulltgU6a56xZRHN4H3l9WmuAYTsLGpBGhQ2"
    },
    "id": "3441854",
    "neo_reference_id": "3441854",
    "name": "(2008 YG3)",
    "designation": "2008 YG3",
    "nasa_jpl_url": "http://ssd.jpl.nasa.gov/sbdb.cgi?sstr=3441854",
    "absolute_magnitude_h": 22.0,
    "estimated_diameter": {
        "kilometers": {
            "estimated_diameter_min": 0.1058168859,
            "estimated_diameter_max": 0.2366137501
        },
        "meters": {
            "estimated_diameter_min": 105.8168859331,
            "estimated_diameter_max": 236.6137501138
        },
        "miles": {
            "estimated_diameter_min": 0.0657515442,
            "estimated_diameter_max": 0.1470249225
        },
        "feet": {
            "estimated_diameter_min": 347.1682720448,
            "estimated_diameter_max": 776.2918559233
        }
    },
    "is_potentially_hazardous_asteroid": false,
    "close_approach_data": [
        {
            "close_approach_date": "1988-01-13",
            "close_approach_date_full": "1988-Jan-13 05:01",
            "epoch_date_close_approach": 569048460000,
            "relative_velocity": {
                "kilometers_per_second": "15.3872978193",
                "kilometers_per_hour": "55394.2721496424",
                "miles_per_hour": "34419.8464920931"
            },
            "miss_distance": {
                "astronomical": "0.4704590617",
                "lunar": "183.0085750013",
                "kilometers": "70379673.552518579",
                "miles": "43731901.2703272302"
            },
            "orbiting_body": "Earth"
        },
        {
            "close_approach_date": "2008-12-27",
            "close_approach_date_full": "2008-Dec-27 15:37",
            "epoch_date_close_approach": 1230392220000,
            "relative_velocity": {
                "kilometers_per_second": "8.0398957438",
                "kilometers_per_hour": "28943.6246775375",
                "miles_per_hour": "17984.4427892177"
            },
            "miss_distance": {
                "astronomical": "0.1509759264",
                "lunar": "58.7296353696",
                "kilometers": "22585677.010716768",
                "miles": "14034088.9251086784"
            },
            "orbiting_body": "Earth"
        },
        {
            "close_approach_date": "2019-08-01",
            "close_approach_date_full": "2019-Aug-01 11:32",
            "epoch_date_close_approach": 1564659120000,
            "relative_velocity": {
                "kilometers_per_second": "4.4621863761",
                "kilometers_per_hour": "16063.8709538894",
                "miles_per_hour": "9981.4647046542"
            },
            "miss_distance": {
                "astronomical": "1.4860645824",
                "lunar": "578.0791225536",
                "kilometers": "222312096.209479488",
                "miles": "138138331.0250454144"
            },
            "orbiting_body": "Juptr"
        },
        {
            "close_approach_date": "2031-12-17",
            "close_approach_date_full": "2031-Dec-17 20:25",
            "epoch_date_close_approach": 1955305500000,
            "relative_velocity": {
                "kilometers_per_second": "3.988737097",
                "kilometers_per_hour": "14359.4535491146",
                "miles_per_hour": "8922.4060122262"
            },
            "miss_distance": {
                "astronomical": "1.2740264512",
                "lunar": "495.5962895168",
                "kilometers": "190591643.423178944",
                "miles": "118428155.6366156672"
            },
            "orbiting_body": "Juptr"
        },
        {
            "close_approach_date": "2033-12-25",
            "close_approach_date_full": "2033-Dec-25 01:16",
            "epoch_date_close_approach": 2019086160000,
            "relative_velocity": {
                "kilometers_per_second": "7.7255500515",
                "kilometers_per_hour": "27811.9801855252",
                "miles_per_hour": "17281.2829102782"
            },
            "miss_distance": {
                "astronomical": "0.1447357999",
                "lunar": "56.3022261611",
                "kilometers": "21652167.377786213",
                "miles": "13454032.9367592194"
            },
            "orbiting_body": "Earth"
        }
    ],
    "orbital_data": {
        "orbit_id": "19",
        "orbit_determination_date": "2017-04-06 09:01:52",
        "first_observation_date": "2008-12-22",
        "last_observation_date": "2009-02-20",
        "data_arc_in_days": 60,
        "observations_used": 63,
        "orbit_uncertainty": "6",
        "minimum_orbit_intersection": ".124895",
        "jupiter_tisserand_invariant": "3.149",
        "epoch_osculation": "2459000.5",
        "eccentricity": ".5728312237317834",
        "semi_major_axis": "2.583453076548022",
        "inclination": "10.63618549096907",
        "ascending_node_longitude": "102.2240078146838",
        "orbital_period": "1516.698626986493",
        "perihelion_distance": "1.103570489255378",
        "perihelion_argument": "346.7766139191619",
        "aphelion_distance": "4.063335663840666",
        "perihelion_time": "2459398.379333438738",
        "mean_anomaly": "265.560302165935",
        "mean_motion": ".237357635587288",
        "equinox": "J2000",
        "orbit_class": {
            "orbit_class_type": "AMO",
            "orbit_class_description": "Near-Earth asteroid orbits similar to that of 1221 Amor",
            "orbit_class_range": "1.017 AU < q (perihelion) < 1.3 AU"
        }
    },
    "is_sentry_object": false
}